GLOBALSTAR M057         
1 25943U 99058A   25352.54375199 -.00000062  00000+0  27919-3 0  9993
2 25943  51.9950 184.9973 0003309  48.7554 311.3580 12.24832158189525
GLOBALSTAR M059         
1 25944U 99058B   25352.49861139 -.00000091  00000+0 -61397-4 0  9994
2 25944  52.0033  68.5455 0000408 121.0232 252.3621 11.99988196596175
GLOBALSTAR M056         
1 25945U 99058C   25352.71390880 -.00000094  00000+0 -76565-4 0  9996
2 25945  51.9977  65.1928 0001322 170.8960   4.1535 12.04781039184865
GLOBALSTAR M031         
1 25946U 99058D   25351.65166691 -.00000043  00000+0  48267-3 0  9990
2 25946  51.9983 309.4344 0000939 181.2254 351.7896 12.16044933186865
GLOBALSTAR M039         
1 25961U 99062A   25352.65399105 -.00000070  00000+0  19089-3 0  9991
2 25961  51.9858  66.8589 0002679  50.7616 309.3488 12.62339834203519
GLOBALSTAR M034         
1 25962U 99062B   25352.95797407 -.00000042  00000+0  61241-3 0  9998
2 25962  51.9867 251.0893 0015114  32.4856  50.0739 11.79454132160198
GLOBALSTAR M029         
1 25963U 99062C   25352.30065829 -.00000049  00000+0  46324-3 0  9996
2 25963  51.9828 316.9603 0002536 109.1720  34.1910 11.99904456191225
GLOBALSTAR M061         
1 25964U 99062D   25352.72166847 -.00000103  00000+0 -38002-3 0  9991
2 25964  51.9803  78.1850 0005173 311.9685 210.8116 11.76777789142907
